SL-3 R/B                
1 19046U 88032B   19032.48911398 -.00000019  00000-0  30070-5 0  9995
2 19046  97.4556  69.4152 0040470 112.5356 248.0161 15.02539617661872
SL-16 R/B               
1 19120U 88039B   19031.85121900  .00000062  00000-0  52360-4 0  9999
2 19120  71.0154 150.5256 0022209 351.8615   8.2146 14.19194515590613
COSMOS 1953             
1 19210U 88050A   19032.48479262  .00000627  00000-0  41251-4 0  9993
2 19210  82.5183 176.9639 0013906  36.9484 323.2698 15.05710512667252
SL-8 R/B                
1 19257U 88053B   19032.51256130 -.00000101  00000-0 -24886-4 0  9992
2 19257  74.0464 203.8751 0021252 305.6042 108.0432 14.37424536604163
COSMOS 1975             
1 19573U 88093A   19031.76359757  .00000318  00000-0  20497-4 0  9994
2 19573  82.5221 130.9889 0015622  78.6646 281.6335 15.04620352627919
SL-14 R/B               
1 19574U 88093B   19031.71815427  .00000063  00000-0  48164-5 0  9990
2 19574  82.5339 310.1259 0020700 323.1733  61.9117 14.83287699637435
SL-16 R/B               
1 19650U 88102B   19031.92743724 -.00000039  00000-0  46290-5 0  9991
2 19650  70.9969 206.6079 0014464 350.1506   9.9331 14.15778261560033
INTERCOSMOS 24          
1 20261U 89080A   19031.88891872  .00000243  00000-0  65897-4 0  9999
2 20261  82.6049 345.4655 1203618 167.3934 196.0361 12.56038314340903
SL-14 R/B               
1 20262U 89080C   19032.13063214  .00000082  00000-0  21779-4 0  9992
2 20262  82.5923  35.6791 1236754 342.5170  13.6665 12.48911553335854
DELTA 1 R/B             
1 20323U 89089B   19031.67865096  .00000032  00000-0  17460-4 0  9992
2 20323  97.0824 253.9444 0072205  15.1475 345.1860 14.48288135540620
DELTA 2 R/B(1)          
1 20453U 90008B   19031.87197474  .00001253  00000-0  74089-4 0  9995
2 20453  35.6253 337.8510 0283174  72.3307 290.8113 14.84689382536443
COSMOS 2058             
1 20465U 90010A   19032.50605723  .00000244  00000-0  18411-4 0  9999
2 20465  82.4879  36.2780 0017131  92.4393 267.8792 14.97823248574292
SL-14 R/B               
1 20466U 90010B   19032.46834425  .00000079  00000-0  70357-5 0  9992
2 20466  82.5041 176.5314 0020465 182.3497 177.7624 14.81345773565472
SL-14 R/B               
1 20511U 90018B   19032.40167788  .00000069  00000-0  61280-5 0  9990
2 20511  82.5244 120.7436 0016594 328.8568  84.9035 14.80002662559955
HST                     
1 20580U 90037B   19032.20078656  .00000440  00000-0  15931-4 0  9994
2 20580  28.4705  41.0511 0002996  85.8576 353.6836 15.09166165380094
SL-16 R/B               
1 20625U 90046B   19032.46358872  .00000260  00000-0  15985-3 0  9991
2 20625  71.0005 341.8430 0016394 282.2856  77.6431 14.14637498481872
COSMOS 2084             
1 20663U 90055A   19032.19500166 -.00000043  00000-0  14528-4 0  9991
2 20663  62.7938  45.0685 0095893 150.8875 209.7614 14.91936269548422
SL-6 R/B(2)             
1 20666U 90055D   19032.20103157 -.00000068  00000-0  11843-4 0  9999
2 20666  62.7871 322.5473 0062572 176.6008 183.5524 14.92210054549812
SL-8 R/B                
1 20775U 90078B   19031.79731312  .00001464  00000-0  71799-4 0  9994
2 20775  82.9276 280.6646 0578706 310.3074  44.8879 14.32877193433724
SL-8 R/B                
1 21088U 91006B   19032.34635323  .00000017  00000-0  10186-5 0  9998
2 21088  82.9436 298.5252 0023861  96.2692  33.8772 13.77108380407379
OKEAN-3                 
1 21397U 91039A   19032.20775671  .00000184  00000-0  15190-4 0  9997
2 21397  82.5228 294.0290 0019173  53.1050 307.1924 14.92760095498394
COSMOS 2151             
1 21422U 91042A   19032.49657203  .00000158  00000-0  13014-4 0  9995
2 21422  82.4987  40.8050 0015745 107.8923 252.4015 14.92018677497116
SL-14 R/B               
1 21423U 91042B   19032.38786435  .00000038  00000-0  19914-5 0  9997
2 21423  82.4955 126.1359 0019141 103.1874 257.1476 14.79753620490452
ERS-1                   
1 21574U 91050A   19031.94128929  .00000010  00000-0  18029-4 0  9997
2 21574  98.5336 342.1132 0032791 345.6146  14.4104 14.37678951442894
ARIANE 40 R/B           
1 21610U 91050F   19032.20304265 -.00000017  00000-0  85950-5 0  9993
2 21610  98.5272  99.7117 0002581 345.5873  78.3660 14.40861895445650
INTERCOSMOS 25          
1 21819U 91086A   19032.53069456  .00000394  00000-0  80697-4 0  9998
2 21819  82.5842  66.7835 1516986 261.3399  81.3532 12.04930453183843
SL-14 R/B               
1 21820U 91086B   19031.74925887  .00000088  00000-0  96694-5 0  9996
2 21820  82.5630 128.3256 1576295 114.8856 262.4110 11.93431087177585
SL-8 R/B                
1 21876U 92008B   19032.52088490  .00000090  00000-0  77501-4 0  9997
2 21876  82.9254  35.4781 0034922 172.8532 299.8184 13.75633672353096
SL-8 R/B                
1 21938U 92020B   19032.40151270  .00000004  00000-0 -11608-4 0  9996
2 21938  82.9294 279.3045 0028841 336.7755 146.3782 13.75262995344964
SL-16 R/B               
1 22220U 92076B   19031.82648396 -.00000238  00000-0 -95325-4 0  9995
2 22220  70.9981 249.6382 0010498  88.2231 335.9494 14.16441373354838
SL-16 R/B               
1 22285U 92093B   19032.25549497 -.00000041  00000-0  32990-5 0  9996
2 22285  71.0258  46.0677 0005681 287.2715  72.7757 14.15033669346574
COSMOS 2228             
1 22286U 92094A   19032.47844364  .00000176  00000-0  16485-4 0  9991
2 22286  82.5212 173.5362 0019970 310.8191  49.1294 14.88010056410869
SL-16 R/B               
1 22566U 93016B   19031.83091034 -.00000152  00000-0 -53906-4 0  9999
2 22566  71.0055 260.8114 0012134 302.8821  57.1133 14.14954517335235
COSMOS 2242             
1 22626U 93024A   19031.60134832  .00000161  00000-0  14917-4 0  9991
2 22626  82.5209 202.2774 0017868 313.9639  46.0104 14.87871173394383
SL-16 R/B               
1 22803U 93059B   19032.49247556 -.00000037  00000-0  56853-5 0  9991
2 22803  70.9904  77.0774 0018273 207.7891 152.2258 14.16804610312465
ARIANE 40 R/B           
1 22830U 93061H   19031.72627191 -.00000051  00000-0 -18033-5 0  9991
2 22830  98.8343  69.2419 0010777 359.3606   0.7561 14.31430279323154
COSMOS 2278             
1 23087U 94023A   19031.61983240 -.00000057  00000-0 -49726-5 0  9992
2 23087  71.0532 198.6522 0008221  13.4836 346.6505 14.13787923278125
SL-16 R/B               
1 23088U 94023B   19031.80591287 -.00000260  00000-0 -11046-3 0  9998
2 23088  71.0011 116.1318 0005954 275.9028  84.1416 14.14672428279225
SL-16 R/B               
1 23343U 94074B   19032.23823355  .00000024  00000-0  10822-4 0  9998
2 23343  98.0738  82.4213 0006202 336.7784  67.2230 14.76763042304502
SL-16 R/B               
1 23405U 94077B   19031.58514815  .00000163  00000-0  10841-3 0  9999
2 23405  70.9826  47.7746 0002292 196.5653 163.5395 14.15204362249211
ERS-2                   
1 23560U 95021A   19032.19889318  .00001046  00000-0  49270-4 0  9992
2 23560  98.5091 114.1094 0004775  88.1737 272.0043 15.22266368265717
ARIANE 40+ R/B          
1 23561U 95021B   19032.19837318  .00000031  00000-0  25495-4 0  9992
2 23561  98.7795  56.9964 0006000 306.8096 118.2449 14.37906413246617
SL-16 R/B               
1 23705U 95058B   19032.00944383 -.00000041  00000-0  35805-5 0  9992
2 23705  71.0193 223.1423 0010582 118.2493 241.9699 14.15118437201199
SL-16 R/B               
1 24298U 96051B   19032.54219401 -.00000027  00000-0  11853-4 0  9999
2 24298  70.8237 249.0000 0014058   8.5019 351.6337 14.12391705155743
ORBVIEW 2 (SEASTAR)     
1 24883U 97037A   19031.71444005  .00000033  00000-0  27765-4 0  9997
2 24883  98.5737 143.6732 0003144 135.1073 225.0366 14.33488609136947
SL-16 R/B               
1 25400U 98043G   19031.84826243 -.00000033  00000-0  43792-5 0  9993
2 25400  98.5596 333.4520 0010052   7.8073 352.3262 14.25436986 69644
SL-16 R/B               
1 25407U 98045B   19031.71442492 -.00000077  00000-0 -14716-4 0  9990
2 25407  71.0097 234.1331 0007273   4.5443 355.5745 14.15784874 59928
ISS (ZARYA)             
1 25544U 98067A   19032.68335461  .00001208  00000-0  26283-4 0  9997
2 25544  51.6429 315.1184 0005009 341.4614  94.8756 15.53215512154200
SL-8 R/B                
1 25723U 99022C   19031.82952273  .00008399  00000-0  95690-4 0  9995
2 25723  48.4128 220.5382 0006275  30.1006 330.0302 15.63051341 98782
CZ-4B R/B               
1 25732U 99025C   19032.17208505 -.00000011  00000-0  17181-4 0  9992
2 25732  98.9860  51.1688 0037063 199.6371 226.5187 14.17659132 20793
OKEAN-O                 
1 25860U 99039A   19031.64392566  .00000033  00000-0  12438-4 0  9994
2 25860  98.2257  36.3578 0001719  74.5491 285.5908 14.76587804 51403
SL-16 R/B               
1 25861U 99039B   19032.53329385  .00000026  00000-0  11084-4 0  9991
2 25861  98.1772  20.6028 0015087 334.6784 137.1889 14.78514947 53591
TERRA                   
1 25994U 99068A   19032.19626952 -.00000780  00000-0 -16304-3 0  9990
2 25994  98.2081 108.7365 0001537  94.2841 265.8548 14.57113480 17171
ENVISAT                 
1 27386U 02009A   19032.53913828 -.00000004  00000-0  12226-4 0  9993
2 27386  98.1623  60.4896 0001143  91.8674  76.8227 14.37940193886481
IDEFIX & ARIANE 42P R/B 
1 27422U 02021B   19031.95479207 -.00000028  00000-0  49927-5 0  9996
2 27422  98.2833  10.8688 0011080 278.7316  81.2611 14.29267602871494
AQUA                    
1 27424U 02022A   19032.55818288  .00000045  00000-0  20140-4 0  9995
2 27424  98.2206 335.3945 0002852  88.9314 266.5158 14.57106908890821
CZ-4B R/B               
1 27432U 02024C   19032.47335972 -.00000026  00000-0  99867-5 0  9994
2 27432  99.0586  21.8412 0050914 151.8874 319.1218 14.14075007862783
MIDORI II (ADEOS-II)    
1 27597U 02056A   19032.50426658  .00000011  00000-0  21549-4 0  9991
2 27597  98.4545 349.6282 0001858  56.5987 303.5371 14.27383001840208
H-2A R/B                
1 27601U 02056E   19032.18144038  .00000043  00000-0  30820-4 0  9997
2 27601  98.2971  86.8663 0071486 333.0034  91.2725 14.31876175842815
